{"type": "FeatureCollection", "features": [ {"type": "Feature", "properties": {"norad_id": 39155, "name": "COSMOS 2485 (747)", "group": "glo-ops", "lat": 34.36665952395952, "lon": -118.29125284029101, "alt_km": 19123.152471135745, "timestamp": "2025-12-08T13:49:32.053591+00:00", "meta": {"OBJECT_NAME": "COSMOS 2485 (747)", "OBJECT_ID": "2013-019A", "EPOCH": "2025-12-05T02:32:45.729312", "MEAN_MOTION": 2.13102875, "ECCENTRICITY": 0.00246247, "INCLINATION": 65.3094, "RA_OF_ASC_NODE": 80.124, "ARG_OF_PERICENTER": 229.2984, "MEAN_ANOMALY": 130.4888, "EPHEMERIS_TYPE": 0, "CLASSIFICATION_TYPE": "U", "NORAD_CAT_ID": 39155, "ELEMENT_SET_NO": 999, "REV_AT_EPOCH": 9814, "BSTAR": 0, "MEAN_MOTION_DOT": -2.1e-07, "MEAN_MOTION_DDOT": 0}, "tle": {"line1": "1 39155U 13019A   25339.10608483 -.00000021  00000+0  00000+0 0  9991", "line2": "2 39155  65.3094  80.1240 0024624 229.2984 130.4888  2.13102875 98144"}}, "geometry": {"type": "Point", "coordinates": [-118.29125284029101, 34.36665952395952]}}, {"type": "Feature", "properties": {"norad_id": 39620, "name": "COSMOS 2492 (754)", "group": "glo-ops", "lat": 5.786142807905542, "lon": 137.74062828563794, "alt_km": 19156.502578667, "timestamp": "2025-12-08T13:49:32.053602+00:00", "meta": {"OBJECT_NAME": "COSMOS 2492 (754)", "OBJECT_ID": "2014-012A", "EPOCH": "2025-12-06T22:36:05.505696", "MEAN_MOTION": 2.13103091, "ECCENTRICITY": 0.00141965, "INCLINATION": 65.4111, "RA_OF_ASC_NODE": 320.4673, "ARG_OF_PERICENTER": 311.6327, "MEAN_ANOMALY": 48.2397, "EPHEMERIS_TYPE": 0, "CLASSIFICATION_TYPE": "U", "NORAD_CAT_ID": 39620, "ELEMENT_SET_NO": 999, "REV_AT_EPOCH": 9114, "BSTAR": 0, "MEAN_MOTION_DOT": -4.9e-07, "MEAN_MOTION_DDOT": 0}, "tle": {"line1": "1 39620U 14012A   25340.94173039 -.00000049  00000+0  00000+0 0  9990", "line2": "2 39620  65.4111 320.4673 0014196 311.6327  48.2397  2.13103091 91147"}}, "geometry": {"type": "Point", "coordinates": [137.74062828563794, 5.786142807905542]}}, {"type": "Feature", "properties": {"norad_id": 40001, "name": "COSMOS 2500 (755)", "group": "glo-ops", "lat": 37.108733349319635, "lon": -19.5107977869069, "alt_km": 19145.997580267856, "timestamp": "2025-12-08T13:49:32.053614+00:00", "meta": {"OBJECT_NAME": "COSMOS 2500 (755)", "OBJECT_ID": "2014-032A", "EPOCH": "2025-12-08T01:15:37.591488", "MEAN_MOTION": 2.13105896, "ECCENTRICITY": 0.00081247, "INCLINATION": 65.3461, "RA_OF_ASC_NODE": 320.1922, "ARG_OF_PERICENTER": 219.298, "MEAN_ANOMALY": 140.6379, "EPHEMERIS_TYPE": 0, "CLASSIFICATION_TYPE": "U", "NORAD_CAT_ID": 40001, "ELEMENT_SET_NO": 999, "REV_AT_EPOCH": 8938, "BSTAR": 0, "MEAN_MOTION_DOT": -4.9e-07, "MEAN_MOTION_DDOT": 0}, "tle": {"line1": "1 40001U 14032A   25342.05251842 -.00000049  00000+0  00000+0 0  9990", "line2": "2 40001  65.3461 320.1922 0008124 219.2980 140.6379  2.13105896 89380"}}, "geometry": {"type": "Point", "coordinates": [-19.5107977869069, 37.108733349319635]}}, {"type": "Feature", "properties": {"norad_id": 40315, "name": "COSMOS 2501 (702K)", "group": "glo-ops", "lat": -19.934628578269844, "lon": 27.346937874814508, "alt_km": 19081.549135925445, "timestamp": "2025-12-08T13:49:32.053625+00:00", "meta": {"OBJECT_NAME": "COSMOS 2501 (702K)", "OBJECT_ID": "2014-075A", "EPOCH": "2025-12-07T20:13:51.362112", "MEAN_MOTION": 2.13101338, "ECCENTRICITY": 0.00201356, "INCLINATION": 63.6139, "RA_OF_ASC_NODE": 196.9947, "ARG_OF_PERICENTER": 204.4913, "MEAN_ANOMALY": 155.4908, "EPHEMERIS_TYPE": 0, "CLASSIFICATION_TYPE": "U", "NORAD_CAT_ID": 40315, "ELEMENT_SET_NO": 999, "REV_AT_EPOCH": 8577, "BSTAR": 0, "MEAN_MOTION_DOT": 5.4e-07, "MEAN_MOTION_DDOT": 0}, "tle": {"line1": "1 40315U 14075A   25341.84295558  .00000054  00000+0  00000+0 0  9998", "line2": "2 40315  63.6139 196.9947 0020135 204.4913 155.4908  2.13101338 85773"}}, "geometry": {"type": "Point", "coordinates": [27.346937874814508, -19.934628578269844]}}, {"type": "Feature", "properties": {"norad_id": 41330, "name": "COSMOS 2514 (751)", "group": "glo-ops", "lat": -31.066614379396807, "lon": 155.75201009123543, "alt_km": 19102.898807261103, "timestamp": "2025-12-08T13:49:32.053644+00:00", "meta": {"OBJECT_NAME": "COSMOS 2514 (751)", "OBJECT_ID": "2016-008A", "EPOCH": "2025-12-07T19:50:46.203360", "MEAN_MOTION": 2.13102518, "ECCENTRICITY": 0.00122791, "INCLINATION": 65.1366, "RA_OF_ASC_NODE": 319.5722, "ARG_OF_PERICENTER": 220.0209, "MEAN_ANOMALY": 139.8828, "EPHEMERIS_TYPE": 0, "CLASSIFICATION_TYPE": "U", "NORAD_CAT_ID": 41330, "ELEMENT_SET_NO": 999, "REV_AT_EPOCH": 7654, "BSTAR": 0, "MEAN_MOTION_DOT": -4.9e-07, "MEAN_MOTION_DDOT": 0}, "tle": {"line1": "1 41330U 16008A   25341.82692365 -.00000049  00000+0  00000+0 0  9994", "line2": "2 41330  65.1366 319.5722 0012279 220.0209 139.8828  2.13102518 76549"}}, "geometry": {"type": "Point", "coordinates": [155.75201009123543, -31.066614379396807]}}, {"type": "Feature", "properties": {"norad_id": 42939, "name": "COSMOS 2522 (752)", "group": "glo-ops", "lat": -19.065186697765274, "lon": -171.3033475971677, "alt_km": 19139.33263151306, "timestamp": "2025-12-08T13:49:32.053668+00:00", "meta": {"OBJECT_NAME": "COSMOS 2522 (752)", "OBJECT_ID": "2017-055A", "EPOCH": "2025-12-07T04:42:21.698208", "MEAN_MOTION": 2.13101873, "ECCENTRICITY": 0.00064632, "INCLINATION": 64.0758, "RA_OF_ASC_NODE": 198.418, "ARG_OF_PERICENTER": 225.3159, "MEAN_ANOMALY": 134.7149, "EPHEMERIS_TYPE": 0, "CLASSIFICATION_TYPE": "U", "NORAD_CAT_ID": 42939, "ELEMENT_SET_NO": 999, "REV_AT_EPOCH": 6388, "BSTAR": 0, "MEAN_MOTION_DOT": 6.1e-07, "MEAN_MOTION_DDOT": 0}, "tle": {"line1": "1 42939U 17055A   25341.19608447  .00000061  00000+0  00000+0 0  9994", "line2": "2 42939  64.0758 198.4180 0006463 225.3159 134.7149  2.13101873 63886"}}, "geometry": {"type": "Point", "coordinates": [-171.3033475971677, -19.065186697765274]}}, {"type": "Feature", "properties": {"norad_id": 43508, "name": "COSMOS 2527 (756)", "group": "glo-ops", "lat": 7.979030211642081, "lon": 83.9412074557248, "alt_km": 19147.36198810191, "timestamp": "2025-12-08T13:49:32.053689+00:00", "meta": {"OBJECT_NAME": "COSMOS 2527 (756)", "OBJECT_ID": "2018-053A", "EPOCH": "2025-12-07T03:45:49.475232", "MEAN_MOTION": 2.13102044, "ECCENTRICITY": 0.00087312, "INCLINATION": 65.4694, "RA_OF_ASC_NODE": 80.3184, "ARG_OF_PERICENTER": 225.1381, "MEAN_ANOMALY": 134.8008, "EPHEMERIS_TYPE": 0, "CLASSIFICATION_TYPE": "U", "NORAD_CAT_ID": 43508, "ELEMENT_SET_NO": 999, "REV_AT_EPOCH": 5818, "BSTAR": 0, "MEAN_MOTION_DOT": -1.2e-07, "MEAN_MOTION_DDOT": 0}, "tle": {"line1": "1 43508U 18053A   25341.15682263 -.00000012  00000+0  00000+0 0  9997", "line2": "2 43508  65.4694  80.3184 0008731 225.1381 134.8008  2.13102044 58184"}}, "geometry": {"type": "Point", "coordinates": [83.9412074557248, 7.979030211642081]}}, {"type": "Feature", "properties": {"norad_id": 43687, "name": "COSMOS 2529 (757)", "group": "glo-ops", "lat": -55.37671931493889, "lon": 154.7835492975168, "alt_km": 19121.674766634005, "timestamp": "2025-12-08T13:49:32.053701+00:00", "meta": {"OBJECT_NAME": "COSMOS 2529 (757)", "OBJECT_ID": "2018-086A", "EPOCH": "2025-12-03T00:44:36.468960", "MEAN_MOTION": 2.13101888, "ECCENTRICITY": 0.00072932, "INCLINATION": 64.2917, "RA_OF_ASC_NODE": 199.2166, "ARG_OF_PERICENTER": 254.4618, "MEAN_ANOMALY": 105.5545, "EPHEMERIS_TYPE": 0, "CLASSIFICATION_TYPE": "U", "NORAD_CAT_ID": 43687, "ELEMENT_SET_NO": 999, "REV_AT_EPOCH": 5510, "BSTAR": 0, "MEAN_MOTION_DOT": 1.06e-06, "MEAN_MOTION_DDOT": 0}, "tle": {"line1": "1 43687U 18086A   25337.03097765  .00000106  00000+0  00000+0 0  9993", "line2": "2 43687  64.2917 199.2166 0007293 254.4618 105.5545  2.13101888 55102"}}, "geometry": {"type": "Point", "coordinates": [154.7835492975168, -55.37671931493889]}}, {"type": "Feature", "properties": {"norad_id": 44299, "name": "COSMOS 2534 (758)", "group": "glo-ops", "lat": 56.97017587378908, "lon": -113.34940785702288, "alt_km": 19142.185415792534, "timestamp": "2025-12-08T13:49:32.053713+00:00", "meta": {"OBJECT_NAME": "COSMOS 2534 (758)", "OBJECT_ID": "2019-030A", "EPOCH": "2025-12-08T05:49:23.609568", "MEAN_MOTION": 2.13102077, "ECCENTRICITY": 0.00089492, "INCLINATION": 64.3654, "RA_OF_ASC_NODE": 199.0446, "ARG_OF_PERICENTER": 283.6677, "MEAN_ANOMALY": 248.9744, "EPHEMERIS_TYPE": 0, "CLASSIFICATION_TYPE": "U", "NORAD_CAT_ID": 44299, "ELEMENT_SET_NO": 999, "REV_AT_EPOCH": 5085, "BSTAR": 0, "MEAN_MOTION_DOT": 4.9e-07, "MEAN_MOTION_DDOT": 0}, "tle": {"line1": "1 44299U 19030A   25342.24263437  .00000049  00000+0  00000+0 0  9999", "line2": "2 44299  64.3654 199.0446 0008949 283.6677 248.9744  2.13102077 50859"}}, "geometry": {"type": "Point", "coordinates": [-113.34940785702288, 56.97017587378908]}}, {"type": "Feature", "properties": {"norad_id": 44850, "name": "COSMOS 2544 (759)", "group": "glo-ops", "lat": 45.18536408168155, "lon": 107.4353592747283, "alt_km": 19158.200894595528, "timestamp": "2025-12-08T13:49:32.053724+00:00", "meta": {"OBJECT_NAME": "COSMOS 2544 (759)", "OBJECT_ID": "2019-088A", "EPOCH": "2025-12-05T05:23:01.027680", "MEAN_MOTION": 2.1310179, "ECCENTRICITY": 0.00137742, "INCLINATION": 65.456, "RA_OF_ASC_NODE": 80.2099, "ARG_OF_PERICENTER": 249.0312, "MEAN_ANOMALY": 110.8229, "EPHEMERIS_TYPE": 0, "CLASSIFICATION_TYPE": "U", "NORAD_CAT_ID": 44850, "ELEMENT_SET_NO": 999, "REV_AT_EPOCH": 4658, "BSTAR": 0, "MEAN_MOTION_DOT": -2e-07, "MEAN_MOTION_DDOT": 0}, "tle": {"line1": "1 44850U 19088A   25339.22431745 -.00000020  00000+0  00000+0 0  9998", "line2": "2 44850  65.4560  80.2099 0013774 249.0312 110.8229  2.13101790 46580"}}, "geometry": {"type": "Point", "coordinates": [107.4353592747283, 45.18536408168155]}}]}